{
  "norad_id": 68622,
  "name": "STARLINK-37252",
  "history": [
    {
      "epoch": "2026-04-16T22:04:09.644448Z",
      "apogee_km": 328.22808925408845,
      "perigee_km": 327.1331633520649,
      "latitude_deg": -2.751884049483426e-05,
      "longitude_deg": 128.4620641146531,
      "height_km": 330.309580948642,
      "semi_major_axis_km": 6705.817626303076,
      "eccentricity": 8.164e-05,
      "inclination_deg": 97.2851,
      "raan_deg": 304.5626,
      "arg_perigee_deg": 2.5612,
      "mean_anomaly_deg": 357.566,
      "mean_motion_rev_day": 15.80975555
    }
  ]
}