STARLINK-37252          
1 68622U 26073W   26106.91955607 -.00431294  00000+0 -23469-2 0  9999
2 68622  97.2851 304.5626 0000816   2.5612 357.5660 15.80975555  1570
